*******************************************************************************
Ephemeris / WWW_USER Fri Mar  7 09:54:48 2025 Pasadena, USA      / Horizons    
*******************************************************************************
Target body name: 62412 (2000 SY178)              {source: JPL#46}
Center body name: Earth (399)                     {source: DE441}
Center-site name: Mauna Kea
*******************************************************************************
Start time      : A.D. 2018-Sep-14 04:35:00.0000 UT      
Stop  time      : A.D. 2018-Sep-14 16:00:00.0000 UT      
Step-size       : 1 minutes
*******************************************************************************
Target pole/equ : undefined
Target radii    : 5.187 km                                                     
Center geodetic : 204.5278, 19.8260847, 4.21024   {E-lon(deg),Lat(deg),Alt(km)}
Center cylindric: 204.5278, 6006.35451, 2151.0229 {E-lon(deg),Dxy(km),Dz(km)}
Center pole/equ : ITRF93                          {East-longitude positive}
Center radii    : 6378.137, 6378.137, 6356.752 km {Equator_a, b, pole_c}       
Target primary  : Sun
Vis. interferer : MOON (R_eq= 1737.400) km        {source: DE441}
Rel. light bend : Sun                             {source: DE441}
Rel. lght bnd GM: 1.3271E+11 km^3/s^2                                          
Small-body perts: Yes                             {source: SB441-N16}
Atmos refraction: NO (AIRLESS)
RA format       : HMS
Time format     : CAL 
Calendar mode   : Mixed Julian/Gregorian
RTS-only print  : NO       
EOP file        : eop.250306.p250602                                           
EOP coverage    : DATA-BASED 1962-JAN-20 TO 2025-MAR-06. PREDICTS-> 2025-JUN-01
Units conversion: 1 au= 149597870.700 km, c= 299792.458 km/s, 1 day= 86400.0 s 
Table cut-offs 1: Elevation (-90.0deg=NO ),Airmass (>38.000=NO), Daylight (YES)
Table cut-offs 2: Solar elongation (  0.0,180.0=NO ),Local Hour Angle( 0.0=NO )
Table cut-offs 3: RA/DEC angular rate (     0.0=NO )                           
*******************************************************************************
Initial IAU76/J2000 heliocentric ecliptic osculating elements (au, days, deg.):
  EPOCH=  2458170.5 ! 2018-Feb-21.00 (TDB)         Residual RMS= .27602        
   EC= .08138541630493452  QR= 2.896136740642169   TP= 2458420.7194902785      
   OM= 329.1508619589129   W=  163.0731028483118   IN= 4.736237123453259       
  Equivalent ICRF heliocentric cartesian coordinates (au, au/d):
   X= 4.513940497926217E-01  Y= 2.603132519717001E+00  Z= 1.377127424929858E+00
  VX=-1.018381435292277E-02 VY= 1.034394081524039E-03 VZ= 5.207836918344824E-05
Asteroid physical parameters (km, seconds, rotational period in hours):        
   GM= n.a.                RAD= 5.187              ROTPER= 3.33                
   H= 13.88                G= .150                 B-V= n.a.                   
                           ALBEDO= .065            STYP= n.a.                  
*******************************************************************************
 Date__(UT)__HR:MN     R.A._________(ICRF)_________DEC
******************************************************
$$SOE
 2018-Sep-14 04:35 Cm  09 11 04.912576 +17 59 16.30365
 2018-Sep-14 04:36 Cm  09 11 04.975415 +17 59 16.00452
 2018-Sep-14 04:37 Cm  09 11 05.038256 +17 59 15.70540
 2018-Sep-14 04:38 Cm  09 11 05.101100 +17 59 15.40629
 2018-Sep-14 04:39 Cm  09 11 05.163946 +17 59 15.10718
 2018-Sep-14 04:40 Cm  09 11 05.226794 +17 59 14.80808
 2018-Sep-14 04:41 Cm  09 11 05.289644 +17 59 14.50899
 2018-Sep-14 04:42 Cm  09 11 05.352496 +17 59 14.20991
 2018-Sep-14 04:43 Cm  09 11 05.415351 +17 59 13.91083
 2018-Sep-14 04:44 Cm  09 11 05.478208 +17 59 13.61177
 2018-Sep-14 04:45 Cm  09 11 05.541066 +17 59 13.31271
 2018-Sep-14 04:46 Cm  09 11 05.603927 +17 59 13.01366
 2018-Sep-14 04:47 Cm  09 11 05.666790 +17 59 12.71462
 2018-Sep-14 04:48 Cm  09 11 05.729656 +17 59 12.41558
 2018-Sep-14 04:49 Nm  09 11 05.792523 +17 59 12.11656
 2018-Sep-14 04:50 Nm  09 11 05.855392 +17 59 11.81754
 2018-Sep-14 04:51 Nm  09 11 05.918264 +17 59 11.51853
 2018-Sep-14 04:52 Nm  09 11 05.981138 +17 59 11.21953
 2018-Sep-14 04:53 Nm  09 11 06.044013 +17 59 10.92053
 2018-Sep-14 04:54 Nm  09 11 06.106891 +17 59 10.62155
 2018-Sep-14 04:55 Nm  09 11 06.169771 +17 59 10.32257
 2018-Sep-14 04:56 Nm  09 11 06.232653 +17 59 10.02361
 2018-Sep-14 04:57 Nm  09 11 06.295537 +17 59 09.72465
 2018-Sep-14 04:58 Nm  09 11 06.358423 +17 59 09.42570
 2018-Sep-14 04:59 Nm  09 11 06.421310 +17 59 09.12676
 2018-Sep-14 05:00 Nm  09 11 06.484200 +17 59 08.82782
 2018-Sep-14 05:01 Nm  09 11 06.547092 +17 59 08.52890
 2018-Sep-14 05:02 Nm  09 11 06.609986 +17 59 08.22998
 2018-Sep-14 05:03 Nm  09 11 06.672882 +17 59 07.93108
 2018-Sep-14 05:04 Nm  09 11 06.735780 +17 59 07.63218
 2018-Sep-14 05:05 Nm  09 11 06.798680 +17 59 07.33329
 2018-Sep-14 05:06 Nm  09 11 06.861582 +17 59 07.03441
 2018-Sep-14 05:07 Nm  09 11 06.924486 +17 59 06.73554
 2018-Sep-14 05:08 Nm  09 11 06.987391 +17 59 06.43668
 2018-Sep-14 05:09 Nm  09 11 07.050299 +17 59 06.13783
 2018-Sep-14 05:10 Nm  09 11 07.113208 +17 59 05.83898
 2018-Sep-14 05:11 Nm  09 11 07.176120 +17 59 05.54015
 2018-Sep-14 05:12 Nm  09 11 07.239033 +17 59 05.24132
 2018-Sep-14 05:13 Nm  09 11 07.301948 +17 59 04.94251
 2018-Sep-14 05:14 Am  09 11 07.364865 +17 59 04.64370
 2018-Sep-14 05:15 Am  09 11 07.427784 +17 59 04.34491
 2018-Sep-14 05:16 Am  09 11 07.490705 +17 59 04.04612
 2018-Sep-14 05:17 Am  09 11 07.553628 +17 59 03.74734
 2018-Sep-14 05:18 Am  09 11 07.616552 +17 59 03.44857
 2018-Sep-14 05:19 Am  09 11 07.679479 +17 59 03.14981
 2018-Sep-14 05:20 Am  09 11 07.742407 +17 59 02.85106
 2018-Sep-14 05:21 Am  09 11 07.805337 +17 59 02.55232
 2018-Sep-14 05:22 Am  09 11 07.868269 +17 59 02.25359
 2018-Sep-14 05:23 Am  09 11 07.931202 +17 59 01.95487
 2018-Sep-14 05:24 Am  09 11 07.994137 +17 59 01.65615
 2018-Sep-14 05:25 Am  09 11 08.057074 +17 59 01.35745
 2018-Sep-14 05:26 Am  09 11 08.120013 +17 59 01.05876
 2018-Sep-14 05:27 Am  09 11 08.182954 +17 59 00.76008
 2018-Sep-14 05:28 Am  09 11 08.245896 +17 59 00.46140
 2018-Sep-14 05:29 Am  09 11 08.308840 +17 59 00.16274
 2018-Sep-14 05:30 Am  09 11 08.371786 +17 58 59.86409
 2018-Sep-14 05:31 Am  09 11 08.434733 +17 58 59.56544
 2018-Sep-14 05:32 Am  09 11 08.497683 +17 58 59.26681
 2018-Sep-14 05:33 Am  09 11 08.560633 +17 58 58.96819
 2018-Sep-14 05:34 Am  09 11 08.623586 +17 58 58.66957
 2018-Sep-14 05:35 Am  09 11 08.686540 +17 58 58.37097
 2018-Sep-14 05:36 Am  09 11 08.749496 +17 58 58.07238
 2018-Sep-14 05:37 Am  09 11 08.812453 +17 58 57.77379
 2018-Sep-14 05:38 Am  09 11 08.875412 +17 58 57.47522
 2018-Sep-14 05:39 Am  09 11 08.938373 +17 58 57.17666
 2018-Sep-14 05:40  m  09 11 09.001335 +17 58 56.87811
 2018-Sep-14 05:41  m  09 11 09.064299 +17 58 56.57956
 2018-Sep-14 05:42  m  09 11 09.127265 +17 58 56.28103
 2018-Sep-14 05:43  m  09 11 09.190232 +17 58 55.98251
 2018-Sep-14 05:44  m  09 11 09.253200 +17 58 55.68400
 2018-Sep-14 05:45  m  09 11 09.316171 +17 58 55.38550
 2018-Sep-14 05:46  m  09 11 09.379142 +17 58 55.08701
 2018-Sep-14 05:47  m  09 11 09.442116 +17 58 54.78853
 2018-Sep-14 05:48  m  09 11 09.505090 +17 58 54.49006
 2018-Sep-14 05:49  m  09 11 09.568067 +17 58 54.19160
 2018-Sep-14 05:50  m  09 11 09.631044 +17 58 53.89315
 2018-Sep-14 05:51  m  09 11 09.694024 +17 58 53.59471
 2018-Sep-14 05:52  m  09 11 09.757004 +17 58 53.29628
 2018-Sep-14 05:53  m  09 11 09.819987 +17 58 52.99787
 2018-Sep-14 05:54  m  09 11 09.882970 +17 58 52.69946
 2018-Sep-14 05:55  m  09 11 09.945955 +17 58 52.40106
 2018-Sep-14 05:56  m  09 11 10.008942 +17 58 52.10268
 2018-Sep-14 05:57  m  09 11 10.071930 +17 58 51.80430
 2018-Sep-14 05:58  m  09 11 10.134919 +17 58 51.50594
 2018-Sep-14 05:59  m  09 11 10.197910 +17 58 51.20759
 2018-Sep-14 06:00  m  09 11 10.260902 +17 58 50.90925
 2018-Sep-14 06:01  m  09 11 10.323896 +17 58 50.61092
 2018-Sep-14 06:02  m  09 11 10.386891 +17 58 50.31260
 2018-Sep-14 06:03  m  09 11 10.449887 +17 58 50.01429
 2018-Sep-14 06:04  m  09 11 10.512884 +17 58 49.71599
 2018-Sep-14 06:05  m  09 11 10.575883 +17 58 49.41770
 2018-Sep-14 06:06  m  09 11 10.638883 +17 58 49.11943
 2018-Sep-14 06:07  m  09 11 10.701885 +17 58 48.82116
 2018-Sep-14 06:08  m  09 11 10.764888 +17 58 48.52291
 2018-Sep-14 06:09  m  09 11 10.827892 +17 58 48.22466
 2018-Sep-14 06:10  m  09 11 10.890897 +17 58 47.92643
 2018-Sep-14 06:11  m  09 11 10.953904 +17 58 47.62821
 2018-Sep-14 06:12  m  09 11 11.016912 +17 58 47.33000
 2018-Sep-14 06:13  m  09 11 11.079921 +17 58 47.03180
 2018-Sep-14 06:14  m  09 11 11.142931 +17 58 46.73362
 2018-Sep-14 06:15  m  09 11 11.205943 +17 58 46.43544
 2018-Sep-14 06:16  m  09 11 11.268955 +17 58 46.13728
 2018-Sep-14 06:17  m  09 11 11.331969 +17 58 45.83912
 2018-Sep-14 06:18  m  09 11 11.394984 +17 58 45.54098
 2018-Sep-14 06:19  m  09 11 11.458000 +17 58 45.24285
 2018-Sep-14 06:20  m  09 11 11.521018 +17 58 44.94473
 2018-Sep-14 06:21  m  09 11 11.584036 +17 58 44.64663
 2018-Sep-14 06:22  m  09 11 11.647056 +17 58 44.34853
 2018-Sep-14 06:23  m  09 11 11.710077 +17 58 44.05044
 2018-Sep-14 06:24  m  09 11 11.773099 +17 58 43.75237
 2018-Sep-14 06:25  m  09 11 11.836122 +17 58 43.45431
 2018-Sep-14 06:26  m  09 11 11.899146 +17 58 43.15626
 2018-Sep-14 06:27  m  09 11 11.962171 +17 58 42.85822
 2018-Sep-14 06:28  m  09 11 12.025197 +17 58 42.56019
 2018-Sep-14 06:29  m  09 11 12.088224 +17 58 42.26218
 2018-Sep-14 06:30  m  09 11 12.151252 +17 58 41.96417
 2018-Sep-14 06:31  m  09 11 12.214282 +17 58 41.66618
 2018-Sep-14 06:32  m  09 11 12.277312 +17 58 41.36820
 2018-Sep-14 06:33  m  09 11 12.340343 +17 58 41.07023
 2018-Sep-14 06:34  m  09 11 12.403375 +17 58 40.77227
 2018-Sep-14 06:35  m  09 11 12.466409 +17 58 40.47433
 2018-Sep-14 06:36  m  09 11 12.529443 +17 58 40.17640
 2018-Sep-14 06:37  m  09 11 12.592478 +17 58 39.87847
